NORAD_CAT_ID,OBJECT_NAME,OBJECT_TYPE,EPOCH,MEAN_MOTION,ECCENTRICITY,INCLINATION,RA_OF_ASC_NODE,ARG_OF_PERICENTER,MEAN_ANOMALY,BSTAR,MEAN_MOTION_DOT,MEAN_MOTION_DDOT,TLE_LINE0,TLE_LINE1,TLE_LINE2,SEMIMAJOR_AXIS,PERIOD,APOGEE,PERIGEE,DECAYED
53418.0,STARLINK-4481,PAYLOAD,2023-06-18 12:33:35,15.08849026,0.0001003,53.2164,251.1592,98.7603,261.3503,5.8116e-05,6.37e-06,0.0,0 STARLINK-4481,1 53418U 22097AG  23169.52333206  .00000637  00000-0  58116-4 0  9997,2 53418  53.2164 251.1592 0001003  98.7603 261.3503 15.08849026 48562,6917.853,95.437,540.412,539.024,0.0
53418.0,STARLINK-4481,PAYLOAD,2023-06-18 22:05:54,15.08844017,9.03e-05,53.2156,249.3755,108.3088,251.8003,2.8677e-05,1.69e-06,0.0,0 STARLINK-4481,1 53418U 22097AG  23169.92077429  .00000169  00000-0  28677-4 0  9992,2 53418  53.2156 249.3755 0000903 108.3088 251.8003 15.08844017 48133,6917.868,95.437,540.358,539.108,0.0
53418.0,STARLINK-4481,PAYLOAD,2023-06-19 12:24:23,15.08837986,9.52e-05,53.2159,246.6999,98.672,261.438,0.00021287,3.102e-05,0.0,0 STARLINK-4481,1 53418U 22097AG  23170.51694037  .00003102  00000-0  21287-3 0  9998,2 53418  53.2159 246.6999 0000952  98.6720 261.4380 15.08837986 48226,6917.887,95.438,540.41,539.093,0.0
53418.0,STARLINK-4481,PAYLOAD,2023-06-20 05:53:38,15.0883454,9.72e-05,53.2172,243.4292,96.5476,263.5626,0.00010237,1.342e-05,0.0,0 STARLINK-4481,1 53418U 22097AG  23171.24558588  .00001342  00000-0  10237-3 0  9996,2 53418  53.2172 243.4292 0000972  96.5476 263.5626 15.08834540 48330,6917.897,95.438,540.434,539.09,0.0
53418.0,STARLINK-4481,PAYLOAD,2023-06-21 12:05:57,15.08846684,8.79e-05,53.2161,237.7784,84.0379,276.0713,0.00011837,1.597e-05,0.0,0 STARLINK-4481,1 53418U 22097AG  23172.50413700  .00001597  00000-0  11837-3 0  9991,2 53418  53.2161 237.7784 0000879  84.0379 276.0713 15.08846684 48529,6917.86,95.437,540.333,539.117,0.0
53418.0,STARLINK-4481,PAYLOAD,2023-06-22 10:21:21,15.08841142,8.06e-05,53.2158,233.6143,87.5138,272.5946,7.3663e-05,8.85e-06,0.0,0 STARLINK-4481,1 53418U 22097AG  23173.43150126  .00000885  00000-0  73663-4 0  9999,2 53418  53.2158 233.6143 0000806  87.5138 272.5946 15.08841142 48668,6917.877,95.437,540.299,539.184,0.0
53418.0,STARLINK-4481,PAYLOAD,2023-06-24 08:27:32,15.08837391,8.76e-05,53.2151,224.9905,88.4606,271.6486,6.3971e-05,7.3e-06,0.0,0 STARLINK-4481,1 53418U 22097AG  23175.35246401  .00000730  00000-0  63971-4 0  9994,2 53418  53.2151 224.9905 0000876  88.4606 271.6486 15.08837391 48959,6917.888,95.438,540.359,539.147,0.0
53418.0,STARLINK-4481,PAYLOAD,2023-06-25 09:53:42,15.08852092,8.71e-05,53.2149,220.2325,81.0289,279.0801,0.00016951,2.412e-05,0.0,0 STARLINK-4481,1 53418U 22097AG  23176.41229243  .00002412  00000-0  16951-3 0  9991,2 53418  53.2149 220.2325 0000871  81.0289 279.0801 15.08852092 49119,6917.843,95.437,540.311,539.106,0.0
53418.0,STARLINK-4481,PAYLOAD,2023-06-26 03:22:57,15.08835463,0.0001113,53.2148,216.9611,96.0064,264.1055,5.9463e-05,6.59e-06,0.0,0 STARLINK-4481,1 53418U 22097AG  23177.14094679  .00000659  00000-0  59463-4 0  9992,2 53418  53.2148 216.9611 0001113  96.0064 264.1055 15.08835463 49226,6917.894,95.438,540.529,538.989,0.0
53418.0,STARLINK-4481,PAYLOAD,2023-06-27 09:35:17,15.0884226,9.9e-05,53.2156,211.313,96.9415,263.169,-4.0987e-05,-9.4e-06,0.0,0 STARLINK-4481,1 53418U 22097AG  23178.39950760 -.00000940  00000-0 -40987-4 0  9998,2 53418  53.2156 211.3130 0000990  96.9415 263.1690 15.08842260 49419,6917.873,95.437,540.423,539.054,0.0
53418.0,STARLINK-4481,PAYLOAD,2023-06-28 23:44:33,15.08834607,8.95e-05,53.2153,204.1747,90.5056,269.6039,9.4827e-05,1.222e-05,0.0,0 STARLINK-4481,1 53418U 22097AG  23179.98927268  .00001222  00000-0  94827-4 0  9995,2 53418  53.2153 204.1747 0000895  90.5056 269.6039 15.08834607 49655,6917.897,95.438,540.381,539.143,0.0
53418.0,STARLINK-4481,PAYLOAD,2023-06-30 23:26:07,15.08838337,8.8e-05,53.2152,195.2529,82.1732,277.936,8.3413e-05,1.04e-05,0.0,0 STARLINK-4481,1 53418U 22097AG  23181.97647106  .00001040  00000-0  83413-4 0  9994,2 53418  53.2152 195.2529 0000880  82.1732 277.9360 15.08838337 49950,6917.885,95.438,540.359,539.142,0.0
53418.0,STARLINK-4481,PAYLOAD,2023-07-02 07:13:49,15.08842308,8.64e-05,53.2156,189.306,90.6834,269.4257,3.9588e-05,3.42e-06,0.0,0 STARLINK-4481,1 53418U 22097AG  23183.30126920  .00000342  00000-0  39588-4 0  9997,2 53418  53.2156 189.3060 0000864  90.6834 269.4257 15.08842308 50155,6917.873,95.437,540.336,539.141,0.0
53418.0,STARLINK-4481,PAYLOAD,2023-07-03 00:43:04,15.08835991,8.81e-05,53.2156,186.0356,80.5481,279.5611,2.8071e-05,1.59e-06,0.0,0 STARLINK-4481,1 53418U 22097AG  23184.02991392  .00000159  00000-0  28071-4 0  9991,2 53418  53.2156 186.0356 0000881  80.5481 279.5611 15.08835991 50260,6917.893,95.438,540.367,539.148,0.0
53418.0,STARLINK-4481,PAYLOAD,2023-07-04 08:30:47,15.08839687,9.52e-05,53.2157,180.0884,76.1074,284.0024,3.9945e-05,3.48e-06,0.0,0 STARLINK-4481,1 53418U 22097AG  23185.35471273  .00000348  00000-0  39945-4 0  9991,2 53418  53.2157 180.0884 0000952  76.1074 284.0024 15.08839687 50466,6917.881,95.438,540.405,539.088,0.0
53418.0,STARLINK-4481,PAYLOAD,2023-07-05 16:18:30,15.08836711,9.73e-05,53.2156,174.1412,77.4411,282.669,4.603e-05,4.45e-06,0.0,0 STARLINK-4481,1 53418U 22097AG  23186.67951705  .00000445  00000-0  46030-4 0  9991,2 53418  53.2156 174.1412 0000973  77.4411 282.6690 15.08836711 50668,6917.89,95.438,540.429,539.082,0.0
53418.0,STARLINK-4481,PAYLOAD,2023-07-07 04:52:21,15.08845798,0.0001045,53.2159,167.3019,79.5462,280.5648,0.00010371,1.363e-05,0.0,0 STARLINK-4481,1 53418U 22097AG  23188.20303214  .00001363  00000-0  10371-3 0  9996,2 53418  53.2159 167.3019 0001045  79.5462 280.5648 15.08845798 50898,6917.863,95.437,540.451,539.005,0.0
53418.0,STARLINK-4481,PAYLOAD,2023-07-08 01:32:23,15.088375,0.0001074,53.216,163.4361,80.2936,279.8177,6.1737e-05,6.95e-06,0.0,0 STARLINK-4481,1 53418U 22097AG  23189.06415783  .00000695  00000-0  61737-4 0  9996,2 53418  53.2160 163.4361 0001074  80.2936 279.8177 15.08837500 51020,6917.888,95.438,540.496,539.01,0.0
53418.0,STARLINK-4481,PAYLOAD,2023-07-08 19:01:38,15.08798411,9.8e-05,53.2156,160.1641,102.4638,257.6464,0.00054159,8.332e-05,0.0,0 STARLINK-4481,1 53418U 22097AG  23189.79280552  .00008332  00000-0  54159-3 0  9995,2 53418  53.2156 160.1641 0000980 102.4638 257.6464 15.08798411 51133,6918.008,95.44,540.55,539.195,0.0
53418.0,STARLINK-4481,PAYLOAD,2023-07-09 04:33:56,15.08831412,0.0001092,53.2157,158.3795,92.3422,267.7695,5.325e-05,5.6e-06,0.0,0 STARLINK-4481,1 53418U 22097AG  23190.19024285  .00000560  00000-0  53250-4 0  9997,2 53418  53.2157 158.3795 0001092  92.3422 267.7695 15.08831412 51199,6917.907,95.438,540.527,539.016,0.0
53418.0,STARLINK-4481,PAYLOAD,2023-07-10 04:24:43,15.08838847,0.0001131,53.2158,153.9199,90.9267,269.1854,3.8113e-05,3.19e-06,0.0,0 STARLINK-4481,1 53418U 22097AG  23191.18383925  .00000319  00000-0  38113-4 0  9999,2 53418  53.2158 153.9199 0001131  90.9267 269.1854 15.08838847 51343,6917.884,95.438,540.531,538.967,0.0
53418.0,STARLINK-4481,PAYLOAD,2023-07-11 05:50:53,15.08838293,0.0001145,53.2162,149.1621,90.4711,269.6412,0.00010344,1.359e-05,0.0,0 STARLINK-4481,1 53418U 22097AG  23192.24367942  .00001359  00000-0  10344-3 0  9998,2 53418  53.2162 149.1621 0001145  90.4711 269.6412 15.08838293 51507,6917.886,95.438,540.543,538.959,0.0
53418.0,STARLINK-4481,PAYLOAD,2023-07-12 04:06:18,15.08833284,0.0001231,53.2169,144.9992,93.9787,266.1345,8.8016e-05,1.113e-05,0.0,0 STARLINK-4481,1 53418U 22097AG  23193.17104449  .00001113  00000-0  88016-4 0  9992,2 53418  53.2169 144.9992 0001231  93.9787 266.1345 15.08833284 51642,6917.901,95.438,540.618,538.914,0.0
53418.0,STARLINK-4481,PAYLOAD,2023-07-13 05:32:28,15.08841902,0.0001114,53.2165,140.2417,87.8981,272.2139,-1.7516e-05,-5.67e-06,0.0,0 STARLINK-4481,1 53418U 22097AG  23194.23088451 -.00000567  00000-0 -17516-4 0  9995,2 53418  53.2165 140.2417 0001114  87.8981 272.2139 15.08841902 51800,6917.875,95.437,540.51,538.969,0.0
53418.0,STARLINK-4481,PAYLOAD,2023-07-14 05:23:15,15.0881653,0.0001301,53.217,135.781,88.2169,271.8972,0.00036337,5.496e-05,0.0,0 STARLINK-4481,1 53418U 22097AG  23195.22449033  .00005496  00000-0  36337-3 0  9997,2 53418  53.2170 135.7810 0001301  88.2169 271.8972 15.08816530 51958,6917.952,95.439,540.717,538.917,0.0
53418.0,STARLINK-4481,PAYLOAD,2023-07-15 02:03:16,15.0883169,0.0001009,53.2159,131.9148,94.2283,265.8825,0.00032306,4.856e-05,0.0,0 STARLINK-4481,1 53418U 22097AG  23196.08560398  .00004856  00000-0  32306-3 0  9991,2 53418  53.2159 131.9148 0001009  94.2283 265.8825 15.08831690 52085,6917.906,95.438,540.469,539.073,0.0
53418.0,STARLINK-4481,PAYLOAD,2023-07-15 05:14:01,15.08851296,0.0001066,53.216,131.3201,102.0891,258.0221,9.6357e-05,1.247e-05,0.0,0 STARLINK-4481,1 53418U 22097AG  23196.21807589  .00001247  00000-0  96357-4 0  9990,2 53418  53.2160 131.3201 0001066 102.0891 258.0221 15.08851296 52108,6917.846,95.437,540.448,538.973,0.0
53418.0,STARLINK-4481,PAYLOAD,2023-07-15 22:43:17,15.08840028,0.000118,53.2169,128.0489,88.3673,271.7454,1.6548e-07,-2.85e-06,0.0,0 STARLINK-4481,1 53418U 22097AG  23196.94672810 -.00000285  00000-0  16548-6 0  9995,2 53418  53.2169 128.0489 0001180  88.3673 271.7454 15.08840028 52212,6917.88,95.438,540.562,538.929,0.0
53418.0,STARLINK-4481,PAYLOAD,2023-07-18 00:00:14,15.08838959,0.0001173,53.2168,118.8311,82.3045,277.808,7.7868e-05,9.52e-06,0.0,0 STARLINK-4481,1 53418U 22097AG  23199.00016660  .00000952  00000-0  77868-4 0  9990,2 53418  53.2168 118.8311 0001173  82.3045 277.8080 15.08838959 52527,6917.884,95.438,540.56,538.937,0.0
53418.0,STARLINK-4481,PAYLOAD,2023-07-18 23:51:02,15.08834152,9.7e-05,53.2166,114.3719,81.1993,278.9109,-6.168e-05,-1.269e-05,0.0,0 STARLINK-4481,1 53418U 22097AG  23199.99377460 -.00001269  00000-0 -61680-4 0  9995,2 53418  53.2166 114.3719 0000970  81.1993 278.9109 15.08834152 52672,6917.898,95.438,540.434,539.092,0.0
